NORAD_CAT_ID,OBJECT_NAME,OBJECT_TYPE,EPOCH,MEAN_MOTION,ECCENTRICITY,INCLINATION,RA_OF_ASC_NODE,ARG_OF_PERICENTER,MEAN_ANOMALY,BSTAR,MEAN_MOTION_DOT,MEAN_MOTION_DDOT,TLE_LINE0,TLE_LINE1,TLE_LINE2,SEMIMAJOR_AXIS,PERIOD,APOGEE,PERIGEE,DECAYED
51750.0,STARLINK-3505,PAYLOAD,2023-01-08 22:39:31,15.08842588,0.0002433,53.2168,97.475,28.9487,331.164,0.00060881,9.415e-05,0.0,0 STARLINK-3505,1 51750U 22016AN  23008.94411435  .00009415  00000-0  60881-3 0  9998,2 51750  53.2168  97.4750 0002433  28.9487 331.1640 15.08842588 50346,6917.871999999999,95.437,541.4209999999998,538.054,0.0
51750.0,STARLINK-3505,PAYLOAD,2023-01-09 08:11:49,15.0885937,0.0002433,53.2164,95.6898,17.2452,342.8622,0.00076668,0.00011941,0.0,0 STARLINK-3505,1 51750U 22016AN  23009.34154810  .00011941  00000-0  76668-3 0  9991,2 51750  53.2164  95.6898 0002433  17.2452 342.8622 15.08859370 49285,6917.821,95.436,541.369,538.003,0.0
51750.0,STARLINK-3505,PAYLOAD,2023-01-09 14:33:22,15.08858941,0.0002518,53.2172,94.4999,14.0573,346.0489,0.0004741,7.269e-05,0.0,0 STARLINK-3505,1 51750U 22016AN  23009.60650513  .00007269  00000-0  47410-3 0  9992,2 51750  53.2172  94.4999 0002518  14.0573 346.0489 15.08858941 49321,6917.821999999999,95.436,541.429,537.946,0.0
51750.0,STARLINK-3505,PAYLOAD,2023-01-10 09:37:59,15.08838863,0.0002533,53.2163,90.9312,20.9547,339.1549,-0.00011567,-2.129e-05,0.0,0 STARLINK-3505,1 51750U 22016AN  23010.40138762 -.00002129  00000-0 -11567-3 0  9995,2 51750  53.2163  90.9312 0002533  20.9547 339.1549 15.08838863 50564,6917.884,95.438,541.501,537.997,0.0
51750.0,STARLINK-3505,PAYLOAD,2023-01-10 14:24:09,15.0884039,0.0002656,53.216,90.039,20.4326,339.6772,3.9855e-05,3.46e-06,0.0,0 STARLINK-3505,1 51750U 22016AN  23010.60010973  .00000346  00000-0  39855-4 0  9998,2 51750  53.2160  90.0390 0002656  20.4326 339.6772 15.08840390 49473,6917.879,95.438,541.582,537.9069999999998,0.0
51750.0,STARLINK-3505,PAYLOAD,2023-01-11 12:39:32,15.088557000000002,0.0002727,53.216,85.8765,25.7886,334.3241,0.00036494,5.527e-05,0.0,0 STARLINK-3505,1 51750U 22016AN  23011.52746011  .00005527  00000-0  36494-3 0  9990,2 51750  53.2160  85.8765 0002727  25.7886 334.3241 15.08855700 50734,6917.831999999999,95.437,541.5840000000002,537.811,0.0
51750.0,STARLINK-3505,PAYLOAD,2023-01-12 09:19:32,15.08850313,0.0002304,53.2165,82.008,28.2583,331.8533,0.00016521,2.343e-05,0.0,0 STARLINK-3505,1 51750U 22016AN  23012.38857427  .00002343  00000-0  16521-3 0  9991,2 51750  53.2165  82.0080 0002304  28.2583 331.8533 15.08850313 50866,6917.849,95.437,541.308,538.12,0.0
51750.0,STARLINK-3505,PAYLOAD,2023-01-12 22:02:38,15.08841239,0.0002889,53.2185,79.6322,23.2666,336.8456,0.00010797,1.4300000000000004e-05,0.0,0 STARLINK-3505,1 51750U 22016AN  23012.91849957  .00001430  00000-0  10797-3 0  9994,2 51750  53.2185  79.6322 0002889  23.2666 336.8456 15.08841239 49824,6917.877,95.437,541.74,537.743,0.0
51750.0,STARLINK-3505,PAYLOAD,2023-01-12 23:38:01,15.08838354,0.0002667,53.2163,79.3335,33.3703,326.7457,1.6056e-05,-3.3e-07,0.0,0 STARLINK-3505,1 51750U 22016AN  23012.98474405 -.00000033  00000-0  16056-4 0  9997,2 51750  53.2163  79.3335 0002667  33.3703 326.7457 15.08838354 50958,6917.885,95.438,541.595,537.905,0.0
51750.0,STARLINK-3505,PAYLOAD,2023-01-13 10:45:45,15.088235699999998,0.0002493,53.2171,77.2525,33.5428,326.5722,-0.00024014,-4.107e-05,0.0,0 STARLINK-3505,1 51750U 22016AN  23013.44844186 -.00004107  00000-0 -24014-3 0  9995,2 51750  53.2171  77.2525 0002493  33.5428 326.5722 15.08823570 49908,6917.931,95.439,541.52,538.071,0.0
51750.0,STARLINK-3505,PAYLOAD,2023-01-13 13:56:31,15.08828788,0.0002556,53.2168,76.6567,35.1177,324.9983,-0.00021785,-3.753e-05,0.0,0 STARLINK-3505,1 51750U 22016AN  23013.58091922 -.00003753  00000-0 -21785-3 0  9990,2 51750  53.2168  76.6567 0002556  35.1177 324.9983 15.08828788 51047,6917.915,95.438,541.548,538.011,0.0
51750.0,STARLINK-3505,PAYLOAD,2023-01-14 12:11:54,15.0884731,0.0002466,53.218,72.4942,26.7899,333.32199999999995,0.0003426,5.17e-05,0.0,0 STARLINK-3505,1 51750U 22016AN  23014.50827068  .00005170  00000-0  34260-3 0  9996,2 51750  53.2180  72.4942 0002466  26.7899 333.3220 15.08847310 51184,6917.858,95.437,541.429,538.0169999999999,0.0
51750.0,STARLINK-3505,PAYLOAD,2023-01-14 20:08:51,15.088312099999998,0.0002248,53.2174,71.0043,40.8993,319.2167,0.00016851,2.394e-05,0.0,0 STARLINK-3505,1 51750U 22016AN  23014.83947953  .00002394  00000-0  16851-3 0  9999,2 51750  53.2174  71.0043 0002248  40.8993 319.2167 15.08831210 51235,6917.906999999999,95.438,541.327,538.217,0.0
51750.0,STARLINK-3505,PAYLOAD,2023-01-14 23:19:37,15.08821131,0.0002413,53.2153,70.4129,45.2443,314.8745,0.00032645,4.908e-05,0.0,0 STARLINK-3505,1 51750U 22016AN  23014.97196659  .00004908  00000-0  32645-3 0  9995,2 51750  53.2153  70.4129 0002413  45.2443 314.8745 15.08821131 51259,6917.938,95.439,541.472,538.134,0.0
51750.0,STARLINK-3505,PAYLOAD,2023-01-15 10:27:19,15.08833694,0.0002439,53.2152,68.3311,47.1625,312.9572,0.00037505,5.685e-05,0.0,0 STARLINK-3505,1 51750U 22016AN  23015.43564429  .00005685  00000-0  37505-3 0  9994,2 51750  53.2152  68.3311 0002439  47.1625 312.9572 15.08833694 51320,6917.9,95.438,541.452,538.077,0.0
51750.0,STARLINK-3505,PAYLOAD,2023-01-15 13:38:05,15.08838602,0.0002481,53.2144,67.7355,45.8318,314.2877,0.00030533,4.574e-05,0.0,0 STARLINK-3505,1 51750U 22016AN  23015.56812231  .00004574  00000-0  30533-3 0  9995,2 51750  53.2144  67.7355 0002481  45.8318 314.2877 15.08838602 50228,6917.885,95.438,541.466,538.033,0.0
51750.0,STARLINK-3505,PAYLOAD,2023-01-15 19:59:38,15.08833225,0.0002715,53.2151,66.5464,50.9584,309.1649,0.00015852,2.235e-05,0.0,0 STARLINK-3505,1 51750U 22016AN  23015.83308717  .00002235  00000-0  15852-3 0  9993,2 51750  53.2151  66.5464 0002715  50.9584 309.1649 15.08833225 50266,6917.901,95.438,541.644,537.888,0.0
51750.0,STARLINK-3505,PAYLOAD,2023-01-16 07:07:19,15.08857759,0.0002109999999999,53.2164,64.4644,44.3841,315.732,0.00017029,2.424e-05,0.0,0 STARLINK-3505,1 51750U 22016AN  23016.29675244  .00002424  00000-0  17029-3 0  9994,2 51750  53.2164  64.4644 0002110  44.3841 315.7320 15.08857759 51458,6917.826,95.436,541.151,538.231,0.0
51750.0,STARLINK-3505,PAYLOAD,2023-01-16 10:18:05,15.08862821,0.0002110999999999,53.2161,63.8703,45.0422,315.0741,0.00023337,3.43e-05,0.0,0 STARLINK-3505,1 51750U 22016AN  23016.42922870  .00003430  00000-0  23337-3 0  9996,2 51750  53.2161  63.8703 0002111  45.0422 315.0741 15.08862821 50352,6917.811,95.436,541.136,538.215,0.0
51750.0,STARLINK-3505,PAYLOAD,2023-01-16 21:25:48,15.08835703,0.0002166999999999,53.2164,61.7921,54.1479,305.9715,-0.00019335,-3.364e-05,0.0,0 STARLINK-3505,1 51750U 22016AN  23016.89292221 -.00003364  00000-0 -19335-3 0  9998,2 51750  53.2164  61.7921 0002167  54.1479 305.9715 15.08835703 51548,6917.894,95.438,541.258,538.259,0.0
51750.0,STARLINK-3505,PAYLOAD,2023-01-17 05:22:45,15.08809431,0.0001968,53.2159,60.3023,58.5635,301.5549,-0.00027029,-4.584e-05,0.0,0 STARLINK-3505,1 51750U 22016AN  23017.22414153 -.00004584  00000-0 -27029-3 0  9990,2 51750  53.2159  60.3023 0001968  58.5635 301.5549 15.08809431 51591,6917.974,95.439,541.2,538.477,0.0
51750.0,STARLINK-3505,PAYLOAD,2023-01-17 11:44:18,15.08816602,0.0002133999999999,53.2156,59.1125,66.672,293.4496,-0.00016946,-2.983e-05,0.0,0 STARLINK-3505,1 51750U 22016AN  23017.48909884 -.00002983  00000-0 -16946-3 0  9995,2 51750  53.2156  59.1125 0002134  66.6720 293.4496 15.08816602 51631,6917.951999999999,95.439,541.293,538.341,0.0
51750.0,STARLINK-3505,PAYLOAD,2023-01-18 08:24:18,15.08849279,0.0001744,53.2158,55.2465,67.2525,292.8651,0.00053159,8.184e-05,0.0,0 STARLINK-3505,1 51750U 22016AN  23018.35021472  .00008184  00000-0  53159-3 0  9994,2 51750  53.2158  55.2465 0001744  67.2525 292.8651 15.08849279 51769,6917.852,95.437,540.924,538.511,0.0
51750.0,STARLINK-3505,PAYLOAD,2023-01-18 09:59:41,15.08859139,0.000181,53.2157,54.9495,67.0428,293.0755,0.00077526,0.00012078,0.0,0 STARLINK-3505,1 51750U 22016AN  23018.41645256  .00012078  00000-0  77526-3 0  9994,2 51750  53.2157  54.9495 0001810  67.0428 293.0755 15.08859139 50652,6917.821999999999,95.436,540.939,538.435,0.0
51750.0,STARLINK-3505,PAYLOAD,2023-01-18 19:32:00,15.08856212,0.0001585999999999,53.2161,53.1665,83.1889,276.9284,0.0008232,0.00012843,0.0,0 STARLINK-3505,1 51750U 22016AN  23018.81389423  .00012843  00000-0  82320-3 0  9997,2 51750  53.2161  53.1665 0001586  83.1889 276.9284 15.08856212 50710,6917.831,95.437,540.793,538.599,0.0
51750.0,STARLINK-3505,PAYLOAD,2023-01-19 05:04:19,15.08853521,0.0001619,53.2158,51.3803,82.0946,278.0229,0.00062373,9.656e-05,0.0,0 STARLINK-3505,1 51750U 22016AN  23019.21133152  .00009656  00000-0  62373-3 0  9992,2 51750  53.2158  51.3803 0001619  82.0946 278.0229 15.08853521 51891,6917.839,95.437,540.8240000000001,538.5840000000001,0.0
51750.0,STARLINK-3505,PAYLOAD,2023-01-19 08:15:05,15.08856654,0.0001409999999999,53.2167,50.7837,87.9567,272.1586,0.00067526,0.0001048,0.0,0 STARLINK-3505,1 51750U 22016AN  23019.34380900  .00010480  00000-0  67526-3 0  9993,2 51750  53.2167  50.7837 0001410  87.9567 272.1586 15.08856654 50792,6917.829000000001,95.437,540.67,538.719,0.0
51750.0,STARLINK-3505,PAYLOAD,2023-01-19 19:22:45,15.08872118,0.0001638,53.2167,48.7012,83.8548,276.2631,0.00049001,7.526e-05,0.0,0 STARLINK-3505,1 51750U 22016AN  23019.80747590  .00007526  00000-0  49001-3 0  9991,2 51750  53.2167  48.7012 0001638  83.8548 276.2631 15.08872118 51981,6917.781999999999,95.436,540.78,538.514,0.0
51750.0,STARLINK-3505,PAYLOAD,2023-01-20 11:16:38,15.08846364,0.0001645,53.2153,45.7301,89.6078,270.5102,5.571600000000001e-05,5.99e-06,0.0,0 STARLINK-3505,1 51750U 22016AN  23020.46988738  .00000599  00000-0  55716-4 0  9990,2 51750  53.2153  45.7301 0001645  89.6078 270.5102 15.08846364 52080,6917.861,95.437,540.864,538.5880000000001,0.0
